start=new Date('2022-10-21T00:00:00.000Z').valueOf();
sats=[{"MEAN_MOTION":"15.08837881","ELEMENT_SET_NO":"999","MEAN_MOTION_DOT":"0.00000380","INCLINATION":"53.2197","MEAN_MOTION_DDOT":"0.0000000000000","GP_ID":"215691493","CENTER_NAME":"EARTH","OBJECT_TYPE":"PAYLOAD","TLE_LINE1":"1 52361U 22045AG  22293.43206465  .00000380  00000-0  41990-4 0  9996","FILE":"3625892","SITE":"AFETR","PERIAPSIS":"538.171","APOAPSIS":"541.333","TLE_LINE2":"2 52361  53.2197 348.8945 0002285  26.0417 334.0690 15.08837881 29155","NORAD_CAT_ID":"52361","MEAN_ANOMALY":"334.0690","ECCENTRICITY":"0.00022850","REV_AT_EPOCH":"2915","OBJECT_ID":"2022-045AG","EPOCH":"2022-10-20T10:22:10.385760","ARG_OF_PERICENTER":"26.0417","SEMIMAJOR_AXIS":"6917.887","CLASSIFICATION_TYPE":"U","RA_OF_ASC_NODE":"348.8945","REF_FRAME":"TEME","RCS_SIZE":"LARGE","COUNTRY_CODE":"US","MEAN_ELEMENT_THEORY":"SGP4","PERIOD":"95.438","DECAY_DATE":null,"OBJECT_NAME":"STARLINK-3728","BSTAR":"0.00004199000000","EPHEMERIS_TYPE":"0","TIME_SYSTEM":"UTC","LAUNCH_DATE":"2022-04-29"},{"EPOCH":"2022-10-20T09:57:00.525024","ARG_OF_PERICENTER":"26.1891","SEMIMAJOR_AXIS":"6917.885","RA_OF_ASC_NODE":"338.9803","CLASSIFICATION_TYPE":"U","REF_FRAME":"TEME","RCS_SIZE":"LARGE","NORAD_CAT_ID":"52362","TLE_LINE2":"2 52362  53.2182 338.9803 0002596  26.1891 333.9232 15.08838502 29280","MEAN_ANOMALY":"333.9232","ECCENTRICITY":"0.00025960","REV_AT_EPOCH":"2928","OBJECT_ID":"2022-045AH","MEAN_ELEMENT_THEORY":"SGP4","PERIOD":"95.438","OBJECT_NAME":"STARLINK-3848","DECAY_DATE":null,"EPHEMERIS_TYPE":"0","BSTAR":"-0.00005995400000","TIME_SYSTEM":"UTC","LAUNCH_DATE":"2022-04-29","COUNTRY_CODE":"US","MEAN_MOTION_DOT":"-0.00001243","MEAN_MOTION_DDOT":"0.0000000000000","INCLINATION":"53.2182","MEAN_MOTION":"15.08838502","ELEMENT_SET_NO":"999","APOAPSIS":"541.546","PERIAPSIS":"537.954","GP_ID":"215691730","CENTER_NAME":"EARTH","TLE_LINE1":"1 52362U 22045AH  22293.41458941 -.00001243  00000-0 -59954-4 0  9993","OBJECT_TYPE":"PAYLOAD","FILE":"3625892","SITE":"AFETR"},{"MEAN_MOTION_DOT":"0.00000766","INCLINATION":"53.2204","MEAN_MOTION_DDOT":"0.0000000000000","MEAN_MOTION":"15.08837755","ELEMENT_SET_NO":"999","PERIAPSIS":"538.075","APOAPSIS":"541.429","GP_ID":"215690492","CENTER_NAME":"EARTH","OBJECT_TYPE":"PAYLOAD","TLE_LINE1":"1 52363U 22045AJ  22293.42838212  .00000766  00000-0  66237-4 0  9997","SITE":"AFETR","FILE":"3625892","EPOCH":"2022-10-20T10:16:52.215168","ARG_OF_PERICENTER":"30.6690","SEMIMAJOR_AXIS":"6917.887","CLASSIFICATION_TYPE":"U","RA_OF_ASC_NODE":"348.9084","RCS_SIZE":"LARGE","REF_FRAME":"TEME","MEAN_ANOMALY":"329.4444","NORAD_CAT_ID":"52363","TLE_LINE2":"2 52363  53.2204 348.9084 0002424  30.6690 329.4444 15.08837755 29155","REV_AT_EPOCH":"2915","ECCENTRICITY":"0.00024240","OBJECT_ID":"2022-045AJ","DECAY_DATE":null,"OBJECT_NAME":"STARLINK-3830","PERIOD":"95.438","MEAN_ELEMENT_THEORY":"SGP4","BSTAR":"0.00006623700000","EPHEMERIS_TYPE":"0","LAUNCH_DATE":"2022-04-29","TIME_SYSTEM":"UTC","COUNTRY_CODE":"US"},{"LAUNCH_DATE":"2022-04-29","TIME_SYSTEM":"UTC","DECAY_DATE":null,"OBJECT_NAME":"STARLINK-3820","MEAN_ELEMENT_THEORY":"SGP4","PERIOD":"95.438","EPHEMERIS_TYPE":"0","BSTAR":"0.00005876200000","COUNTRY_CODE":"US","RA_OF_ASC_NODE":"338.4008","CLASSIFICATION_TYPE":"U","RCS_SIZE":"LARGE","REF_FRAME":"TEME","EPOCH":"2022-10-20T12:58:33.094848","ARG_OF_PERICENTER":"23.5023","SEMIMAJOR_AXIS":"6917.897","REV_AT_EPOCH":"2930","ECCENTRICITY":"0.00025950","OBJECT_ID":"2022-045AK","MEAN_ANOMALY":"336.6088","TLE_LINE2":"2 52364  53.2168 338.4008 0002595  23.5023 336.6088 15.08834475 29302","NORAD_CAT_ID":"52364","APOAPSIS":"541.557","PERIAPSIS":"537.967","TLE_LINE1":"1 52364U 22045AK  22293.54066082  .00000647  00000-0  58762-4 0  9991","OBJECT_TYPE":"PAYLOAD","SITE":"AFETR","FILE":"3626396","GP_ID":"215726955","CENTER_NAME":"EARTH","MEAN_MOTION_DDOT":"0.0000000000000","INCLINATION":"53.2168","MEAN_MOTION_DOT":"0.00000647","ELEMENT_SET_NO":"999","MEAN_MOTION":"15.08834475"},{"GP_ID":"215725721","CENTER_NAME":"EARTH","SITE":"AFETR","FILE":"3626396","OBJECT_TYPE":"PAYLOAD","TLE_LINE1":"1 52365U 22045AL  22293.81939012  .00001128  00000-0  88976-4 0  9999","PERIAPSIS":"538.108","APOAPSIS":"541.464","MEAN_MOTION":"15.08826697","ELEMENT_SET_NO":"999","MEAN_MOTION_DOT":"0.00001128","INCLINATION":"53.2153","MEAN_MOTION_DDOT":"0.0000000000000","COUNTRY_CODE":"US","BSTAR":"0.00008897600000","EPHEMERIS_TYPE":"0","DECAY_DATE":null,"OBJECT_NAME":"STARLINK-3874","MEAN_ELEMENT_THEORY":"SGP4","PERIOD":"95.438","LAUNCH_DATE":"2022-04-29","TIME_SYSTEM":"UTC","MEAN_ANOMALY":"328.5939","TLE_LINE2":"2 52365  53.2153 337.1520 0002426  31.5198 328.5939 15.08826697 29343","NORAD_CAT_ID":"52365","OBJECT_ID":"2022-045AL","REV_AT_EPOCH":"2934","ECCENTRICITY":"0.00024260","SEMIMAJOR_AXIS":"6917.921","ARG_OF_PERICENTER":"31.5198","EPOCH":"2022-10-20T19:39:55.306368","REF_FRAME":"TEME","RCS_SIZE":"LARGE","RA_OF_ASC_NODE":"337.1520","CLASSIFICATION_TYPE":"U"},{"PERIAPSIS":"538.038","APOAPSIS":"541.445","FILE":"3625892","SITE":"AFETR","TLE_LINE1":"1 52366U 22045AM  22293.40354596  .00002390  00000-0  16822-3 0  9995","OBJECT_TYPE":"PAYLOAD","GP_ID":"215692230","CENTER_NAME":"EARTH","MEAN_MOTION_DDOT":"0.0000000000000","INCLINATION":"53.2173","MEAN_MOTION_DOT":"0.00002390","ELEMENT_SET_NO":"999","MEAN_MOTION":"15.08841260","TIME_SYSTEM":"UTC","LAUNCH_DATE":"2022-04-29","BSTAR":"0.00016822000000","EPHEMERIS_TYPE":"0","MEAN_ELEMENT_THEORY":"SGP4","PERIOD":"95.437","OBJECT_NAME":"STARLINK-3808","DECAY_DATE":null,"COUNTRY_CODE":"US","REF_FRAME":"TEME","RCS_SIZE":"LARGE","RA_OF_ASC_NODE":"339.0201","CLASSIFICATION_TYPE":"U","SEMIMAJOR_AXIS":"6917.877","ARG_OF_PERICENTER":"26.5743","EPOCH":"2022-10-20T09:41:06.370944","OBJECT_ID":"2022-045AM","ECCENTRICITY":"0.00024620","REV_AT_EPOCH":"2928","TLE_LINE2":"2 52366  53.2173 339.0201 0002462  26.5743 333.5375 15.08841260 29289","NORAD_CAT_ID":"52366","MEAN_ANOMALY":"333.5375"},{"OBJECT_TYPE":"PAYLOAD","TLE_LINE1":"1 52367U 22045AN  22293.54339136  .00006050  00000-0  39807-3 0  9999","FILE":"3626396","SITE":"AFETR","CENTER_NAME":"EARTH","GP_ID":"215726722","APOAPSIS":"541.725","PERIAPSIS":"537.876","ELEMENT_SET_NO":"999","MEAN_MOTION":"15.08821897","MEAN_MOTION_DDOT":"0.0000000000000","INCLINATION":"53.2165","MEAN_MOTION_DOT":"0.00006050","COUNTRY_CODE":"US","TIME_SYSTEM":"UTC","LAUNCH_DATE":"2022-04-29","MEAN_ELEMENT_THEORY":"SGP4","PERIOD":"95.439","OBJECT_NAME":"STARLINK-3817","DECAY_DATE":null,"BSTAR":"0.00039807000000","EPHEMERIS_TYPE":"0","ECCENTRICITY":"0.00027820","REV_AT_EPOCH":"2930","OBJECT_ID":"2022-045AN","NORAD_CAT_ID":"52367","TLE_LINE2":"2 52367  53.2165 338.3912 0002782  33.9962 326.1208 15.08821897 29302","MEAN_ANOMALY":"326.1208","CLASSIFICATION_TYPE":"U","RA_OF_ASC_NODE":"338.3912","REF_FRAME":"TEME","RCS_SIZE":"LARGE","ARG_OF_PERICENTER":"33.9962","EPOCH":"2022-10-20T13:02:29.013504","SEMIMAJOR_AXIS":"6917.936"},{"EPHEMERIS_TYPE":"0","BSTAR":"0.00006042900000","PERIOD":"95.437","MEAN_ELEMENT_THEORY":"SGP4","DECAY_DATE":null,"OBJECT_NAME":"STARLINK-3834","TIME_SYSTEM":"UTC","LAUNCH_DATE":"2022-04-29","COUNTRY_CODE":"US","SEMIMAJOR_AXIS":"6917.872","EPOCH":"2022-10-20T12:35:58.927776","ARG_OF_PERICENTER":"31.5519","RCS_SIZE":"LARGE","REF_FRAME":"TEME","RA_OF_ASC_NODE":"338.4720","CLASSIFICATION_TYPE":"U","TLE_LINE2":"2 52368  53.2176 338.4720 0002439  31.5519 328.5619 15.08842641 29294","NORAD_CAT_ID":"52368","MEAN_ANOMALY":"328.5619","OBJECT_ID":"2022-045AP","ECCENTRICITY":"0.00024390","REV_AT_EPOCH":"2929","PERIAPSIS":"538.050","APOAPSIS":"541.425","CENTER_NAME":"EARTH","GP_ID":"215691242","FILE":"3625892","SITE":"AFETR","OBJECT_TYPE":"PAYLOAD","TLE_LINE1":"1 52368U 22045AP  22293.52498759  .00000674  00000-0  60429-4 0  9996","MEAN_MOTION_DOT":"0.00000674","MEAN_MOTION_DDOT":"0.0000000000000","INCLINATION":"53.2176","MEAN_MOTION":"15.08842641","ELEMENT_SET_NO":"999"},{"MEAN_MOTION_DDOT":"0.0000000000000","INCLINATION":"53.2178","MEAN_MOTION_DOT":"0.00002412","ELEMENT_SET_NO":"999","MEAN_MOTION":"15.08842603","PERIAPSIS":"538.301","APOAPSIS":"541.174","SITE":"AFETR","FILE":"3626396","OBJECT_TYPE":"PAYLOAD","TLE_LINE1":"1 52369U 22045AQ  22293.53969981  .00002412  00000-0  16960-3 0  9990","GP_ID":"215726221","CENTER_NAME":"EARTH","REF_FRAME":"TEME","RCS_SIZE":"LARGE","CLASSIFICATION_TYPE":"U","RA_OF_ASC_NODE":"338.4111","SEMIMAJOR_AXIS":"6917.872","EPOCH":"2022-10-20T12:57:10.063584","ARG_OF_PERICENTER":"41.6379","OBJECT_ID":"2022-045AQ","REV_AT_EPOCH":"2930","ECCENTRICITY":"0.00020770","MEAN_ANOMALY":"318.4771","NORAD_CAT_ID":"52369","TLE_LINE2":"2 52369  53.2178 338.4111 0002077  41.6379 318.4771 15.08842603 29302","LAUNCH_DATE":"2022-04-29","TIME_SYSTEM":"UTC","BSTAR":"0.00016960000000","EPHEMERIS_TYPE":"0","DECAY_DATE":null,"OBJECT_NAME":"STARLINK-3841","PERIOD":"95.437","MEAN_ELEMENT_THEORY":"SGP4","COUNTRY_CODE":"US"},{"REF_FRAME":"TEME","RCS_SIZE":"LARGE","RA_OF_ASC_NODE":"336.9593","CLASSIFICATION_TYPE":"U","SEMIMAJOR_AXIS":"6917.893","ARG_OF_PERICENTER":"32.5616","EPOCH":"2022-10-20T20:43:30.744192","OBJECT_ID":"2022-045AR","REV_AT_EPOCH":"2935","ECCENTRICITY":"0.00024300","MEAN_ANOMALY":"327.5526","NORAD_CAT_ID":"52370","TLE_LINE2":"2 52370  53.2190 336.9593 0002430  32.5616 327.5526 15.08835939 29359","LAUNCH_DATE":"2022-04-29","TIME_SYSTEM":"UTC","EPHEMERIS_TYPE":"0","BSTAR":"-0.00001762300000","OBJECT_NAME":"STARLINK-3827","DECAY_DATE":null,"MEAN_ELEMENT_THEORY":"SGP4","PERIOD":"95.438","COUNTRY_CODE":"US","INCLINATION":"53.2190","MEAN_MOTION_DDOT":"0.0000000000000","MEAN_MOTION_DOT":"-0.00000569","ELEMENT_SET_NO":"999","MEAN_MOTION":"15.08835939","PERIAPSIS":"538.077","APOAPSIS":"541.439","SITE":"AFETR","FILE":"3626396","OBJECT_TYPE":"PAYLOAD","TLE_LINE1":"1 52370U 22045AR  22293.86355028 -.00000569  00000-0 -17623-4 0  9990","GP_ID":"215726473","CENTER_NAME":"EARTH"}];
